NORAD_CAT_ID,OBJECT_NAME,OBJECT_TYPE,EPOCH,MEAN_MOTION,ECCENTRICITY,INCLINATION,RA_OF_ASC_NODE,ARG_OF_PERICENTER,MEAN_ANOMALY,BSTAR,MEAN_MOTION_DOT,MEAN_MOTION_DDOT,TLE_LINE0,TLE_LINE1,TLE_LINE2,SEMIMAJOR_AXIS,PERIOD,APOGEE,PERIGEE,DECAYED
54101.0,STARLINK-5204,PAYLOAD,2023-10-23 14:01:21,15.08833793,0.000138,53.2161,255.955,100.4824,259.6324,0.00041569,6.333e-05,0.0,0 STARLINK-5204,1 54101U 22136BC  23296.58427963  .00006333  00000-0  41569-3 0  9994,2 54101  53.2161 255.9550 0001380 100.4824 259.6324 15.08833793 56147,6917.899,95.438,540.719,538.81,0.0
54101.0,STARLINK-5204,PAYLOAD,2023-10-24 07:30:36,15.08844767,0.000145,53.2167,252.6849,98.6154,261.5003,0.00052161,8.024e-05,0.0,0 STARLINK-5204,1 54101U 22136BC  23297.31292035  .00008024  00000-0  52161-3 0  9995,2 54101  53.2167 252.6849 0001450  98.6154 261.5003 15.08844767 56723,6917.866,95.437,540.734,538.728,0.0
54101.0,STARLINK-5204,PAYLOAD,2023-10-24 13:52:08,15.08841813,0.0001437,53.2163,251.4951,98.4154,261.7001,0.00040824,6.215e-05,0.0,0 STARLINK-5204,1 54101U 22136BC  23297.57788127  .00006215  00000-0  40824-3 0  9998,2 54101  53.2163 251.4951 0001437  98.4154 261.7001 15.08841813 56294,6917.875,95.437,540.734,538.746,0.0
54101.0,STARLINK-5204,PAYLOAD,2023-10-25 05:46:00,15.08842022,0.0001632,53.2171,248.5241,108.1663,251.9507,0.00023437,3.444e-05,0.0,0 STARLINK-5204,1 54101U 22136BC  23298.24028215  .00003444  00000-0  23437-3 0  9990,2 54101  53.2171 248.5241 0001632 108.1663 251.9507 15.08842022 56861,6917.874,95.437,540.868,538.61,0.0
54101.0,STARLINK-5204,PAYLOAD,2023-10-26 05:36:47,15.08848496,0.0001369,53.2161,244.061,101.8293,258.2853,0.00016597,2.355e-05,0.0,0 STARLINK-5204,1 54101U 22136BC  23299.23387986  .00002355  00000-0  16597-3 0  9992,2 54101  53.2161 244.0610 0001369 101.8293 258.2853 15.08848496 56547,6917.854,95.437,540.666,538.772,0.0
54101.0,STARLINK-5204,PAYLOAD,2023-10-27 03:52:10,15.08862018,0.0001522,53.2161,239.895,105.5105,254.6055,0.00047808,7.333e-05,0.0,0 STARLINK-5204,1 54101U 22136BC  23300.16123263  .00007333  00000-0  47808-3 0  9993,2 54101  53.2161 239.8950 0001522 105.5105 254.6055 15.08862018 57158,6917.813,95.436,540.731,538.625,0.0
54101.0,STARLINK-5204,PAYLOAD,2023-10-27 13:24:29,15.08839088,0.0001643,53.2155,238.1137,86.2777,273.8403,-6.6108e-05,-1.34e-05,0.0,0 STARLINK-5204,1 54101U 22136BC  23300.55867942 -.00001340  00000-0 -66108-4 0  9994,2 54101  53.2155 238.1137 0001643  86.2777 273.8403 15.08839088 57212,6917.883,95.438,540.885,538.612,0.0
54101.0,STARLINK-5204,PAYLOAD,2023-10-27 19:46:02,15.08839243,0.0002059,53.2151,236.9246,83.3551,276.7675,2.6581e-05,1.35e-06,0.0,0 STARLINK-5204,1 54101U 22136BC  23300.82364230  .00000135  00000-0  26581-4 0  9996,2 54101  53.2151 236.9246 0002059  83.3551 276.7675 15.08839243 56782,6917.883,95.438,541.172,538.323,0.0
54101.0,STARLINK-5204,PAYLOAD,2023-10-28 13:15:17,15.08838166,0.000174,53.2167,233.6524,89.6002,270.519,0.00016407,2.324e-05,0.0,0 STARLINK-5204,1 54101U 22136BC  23301.55228583  .00002324  00000-0  16407-3 0  9994,2 54101  53.2167 233.6524 0001740  89.6002 270.5190 15.08838166 56897,6917.886,95.438,540.955,538.547,0.0
54101.0,STARLINK-5204,PAYLOAD,2023-10-29 01:58:22,15.0885458,0.0001517,53.2163,231.2724,97.2431,262.8734,0.00088491,0.00013829,0.0,0 STARLINK-5204,1 54101U 22136BC  23302.08220254  .00013829  00000-0  88491-3 0  9994,2 54101  53.2163 231.2724 0001517  97.2431 262.8734 15.08854580 57440,6917.836,95.437,540.75,538.651,0.0
54101.0,STARLINK-5204,PAYLOAD,2023-10-29 05:09:08,15.08865938,0.0001637,53.2161,230.6775,95.7612,264.3566,0.001228,0.00019324,0.0,0 STARLINK-5204,1 54101U 22136BC  23302.21468053  .00019324  00000-0  12280-2 0  9998,2 54101  53.2161 230.6775 0001637  95.7612 264.3566 15.08865938 56992,6917.801,95.436,540.799,538.534,0.0
54101.0,STARLINK-5204,PAYLOAD,2023-10-29 19:27:36,15.08845995,0.0001451,53.2161,228.0025,86.6599,273.4559,0.00030486,4.568e-05,0.0,0 STARLINK-5204,1 54101U 22136BC  23302.81084362  .00004568  00000-0  30486-3 0  9994,2 54101  53.2161 228.0025 0001451  86.6599 273.4559 15.08845995 57555,6917.862,95.437,540.731,538.723,0.0
54101.0,STARLINK-5204,PAYLOAD,2023-10-29 22:38:23,15.08848001,0.000128,53.2165,227.4081,94.555,265.5588,0.00037542,5.693e-05,0.0,0 STARLINK-5204,1 54101U 22136BC  23302.94332261  .00005693  00000-0  37542-3 0  9992,2 54101  53.2165 227.4081 0001280  94.5550 265.5588 15.08848001 57105,6917.856,95.437,540.606,538.835,0.0
54101.0,STARLINK-5204,PAYLOAD,2023-10-30 19:18:24,15.0883236,6.01e-05,53.2173,223.5424,81.2275,278.8785,0.00026527,3.936e-05,0.0,0 STARLINK-5204,1 54101U 22136BC  23303.80444952  .00003936  00000-0  26527-3 0  9998,2 54101  53.2173 223.5424 0000601  81.2275 278.8785 15.08832360 57708,6917.904,95.438,540.185,539.353,0.0
54101.0,STARLINK-5204,PAYLOAD,2023-10-30 22:29:10,15.08838078,0.0001367,53.2169,222.9469,109.6153,250.4986,0.00092296,0.00014431,0.0,0 STARLINK-5204,1 54101U 22136BC  23303.93692975  .00014431  00000-0  92296-3 0  9990,2 54101  53.2169 222.9469 0001367 109.6153 250.4986 15.08838078 57256,6917.886,95.438,540.697,538.806,0.0
54101.0,STARLINK-5204,PAYLOAD,2023-10-31 11:12:15,15.08848513,9.11e-05,53.2167,220.571,95.5125,264.5971,0.0010091,0.00015812,0.0,0 STARLINK-5204,1 54101U 22136BC  23304.46684989  .00015812  00000-0  10091-2 0  9991,2 54101  53.2167 220.5710 0000911  95.5125 264.5971 15.08848513 57337,6917.854,95.437,540.35,539.089,0.0
54101.0,STARLINK-5204,PAYLOAD,2023-10-31 22:19:57,15.08842745,0.0001206,53.2174,218.4916,105.3664,254.7462,0.00033708,5.081e-05,0.0,0 STARLINK-5204,1 54101U 22136BC  23304.93053099  .00005081  00000-0  33708-3 0  9993,2 54101  53.2174 218.4916 0001206 105.3664 254.7462 15.08842745 57400,6917.872,95.437,540.571,538.903,0.0
54101.0,STARLINK-5204,PAYLOAD,2023-11-01 04:41:30,15.08856137,0.0001171,53.217,217.3005,93.8662,266.2464,0.00072025,0.00011198,0.0,0 STARLINK-5204,1 54101U 22136BC  23305.19548760  .00011198  00000-0  72025-3 0  9997,2 54101  53.2170 217.3005 0001171  93.8662 266.2464 15.08856137 57919,6917.831,95.437,540.506,538.886,0.0
54101.0,STARLINK-5204,PAYLOAD,2023-11-01 11:03:02,15.0884698,0.0001173,53.216,216.1066,76.5713,283.541,0.00050788,7.806e-05,0.0,0 STARLINK-5204,1 54101U 22136BC  23305.46044967  .00007806  00000-0  50788-3 0  9990,2 54101  53.2160 216.1066 0001173  76.5713 283.5410 15.08846980 57951,6917.859,95.437,540.536,538.913,0.0
54101.0,STARLINK-5204,PAYLOAD,2023-11-01 22:10:45,15.08844781,0.0001977,53.2165,214.0257,77.2213,282.9,0.00022047,3.223e-05,0.0,0 STARLINK-5204,1 54101U 22136BC  23305.92413233  .00003223  00000-0  22047-3 0  9993,2 54101  53.2165 214.0257 0001977  77.2213 282.9000 15.08844781 57551,6917.866,95.437,541.098,538.363,0.0
54101.0,STARLINK-5204,PAYLOAD,2023-11-02 10:53:49,15.08847205,0.0001718,53.2167,211.6495,81.2589,278.8598,0.00030412,4.556e-05,0.0,0 STARLINK-5204,1 54101U 22136BC  23306.45404990  .00004556  00000-0  30412-3 0  9997,2 54101  53.2167 211.6495 0001718  81.2589 278.8598 15.08847205 58106,6917.858,95.437,540.912,538.535,0.0
54101.0,STARLINK-5204,PAYLOAD,2023-11-02 22:01:32,15.08843368,0.0002306,53.2166,209.5682,85.1642,274.9613,0.00022322,3.266e-05,0.0,0 STARLINK-5204,1 54101U 22136BC  23306.91773233  .00003266  00000-0  22322-3 0  9995,2 54101  53.2166 209.5682 0002306  85.1642 274.9613 15.08843368 57702,6917.87,95.437,541.33,538.14,0.0
54101.0,STARLINK-5204,PAYLOAD,2023-11-03 10:44:36,15.0884268,0.0001292,53.2155,207.1895,90.7773,269.3367,0.00013624,1.881e-05,0.0,0 STARLINK-5204,1 54101U 22136BC  23307.44764939  .00001881  00000-0  13624-3 0  9993,2 54101  53.2155 207.1895 0001292  90.7773 269.3367 15.08842680 58251,6917.872,95.437,540.631,538.843,0.0
54101.0,STARLINK-5204,PAYLOAD,2023-11-03 21:52:19,15.08841181,0.0001431,53.2157,205.1074,89.8988,270.2168,9.4672e-05,1.219e-05,0.0,0 STARLINK-5204,1 54101U 22136BC  23307.91133118  .00001219  00000-0  94672-4 0  9992,2 54101  53.2157 205.1074 0001431  89.8988 270.2168 15.08841181 57852,6917.877,95.437,540.732,538.752,0.0
54101.0,STARLINK-5204,PAYLOAD,2023-11-04 10:35:24,15.08842529,0.0001364,53.2165,202.7277,89.6332,270.4816,0.0001025,1.344e-05,0.0,0 STARLINK-5204,1 54101U 22136BC  23308.44125030  .00001344  00000-0  10250-3 0  9993,2 54101  53.2165 202.7277 0001364  89.6332 270.4816 15.08842529 57933,6917.873,95.437,540.681,538.794,0.0
54101.0,STARLINK-5204,PAYLOAD,2023-11-04 23:18:29,15.0884364,0.0001313,53.2165,200.3476,94.6791,265.4351,0.00021332,3.109e-05,0.0,0 STARLINK-5204,1 54101U 22136BC  23308.97117041  .00003109  00000-0  21332-3 0  9998,2 54101  53.2165 200.3476 0001313  94.6791 265.4351 15.08843640 58010,6917.869,95.437,540.643,538.826,0.0
54101.0,STARLINK-5204,PAYLOAD,2023-11-05 10:26:10,15.0885502,0.0001602,53.2169,198.2653,99.6686,260.4487,0.00043561,6.654e-05,0.0,0 STARLINK-5204,1 54101U 22136BC  23309.43484555  .00006654  00000-0  43561-3 0  9993,2 54101  53.2169 198.2653 0001602  99.6686 260.4487 15.08855020 58082,6917.834,95.437,540.808,538.591,0.0
54101.0,STARLINK-5204,PAYLOAD,2023-11-05 19:58:28,15.08858987,0.0001341,53.2172,196.4812,102.084,258.0302,0.00039058,5.937e-05,0.0,0 STARLINK-5204,1 54101U 22136BC  23309.83227937  .00005937  00000-0  39058-3 0  9995,2 54101  53.2172 196.4812 0001341 102.0840 258.0302 15.08858987 58617,6917.822,95.436,540.615,538.76,0.0
54101.0,STARLINK-5204,PAYLOAD,2023-11-05 23:09:14,15.0888816,0.0001352,53.2154,195.8883,99.0555,261.059,0.001081,0.00016981,0.0,0 STARLINK-5204,1 54101U 22136BC  23309.96475055  .00016981  00000-0  10810-2 0  9990,2 54101  53.2154 195.8883 0001352  99.0555 261.0590 15.08888160 58167,6917.733,95.435,540.533,538.663,0.0
54101.0,STARLINK-5204,PAYLOAD,2023-11-06 19:49:15,15.08846559,0.0001625,53.217,192.0186,127.6426,232.4714,1.8644e-05,9e-08,0.0,0 STARLINK-5204,1 54101U 22136BC  23310.82587615  .00000009  00000-0  18644-4 0  9992,2 54101  53.2170 192.0186 0001625 127.6426 232.4714 15.08846559 58760,6917.86,95.437,540.849,538.601,0.0
